0 COSMOS 1275 DEB
1 33503U 81053MZ  13282.31377043  .00006776  00000-0  19848-2 0  7632
2 33503 082.9655 234.1120 0025244 089.5655 062.8356 14.43628286247499
0 COSMOS 1275 DEB
1 33503U 81053MZ  13285.35885931  .00005175  00000-0  15140-2 0  7654
2 33503 082.9644 231.5926 0025450 080.7868 047.7765 14.43658043247939
0 COSMOS 1275 DEB
1 33503U 81053MZ  13288.27549787  .00007910  00000-0  23146-2 0  7669
2 33503 082.9656 229.1798 0025431 072.5203 085.3209 14.43686350248353
0 COSMOS 1275 DEB
1 33503U 81053MZ  13290.28421132  .00007286  00000-0  21309-2 0  7672
2 33503 082.9662 227.5183 0025433 066.6084 084.8717 14.43708786248641
0 COSMOS 1275 DEB
1 33503U 81053MZ  13292.82971330  .00006276  00000-0  18340-2 0  7684
2 33503 082.9662 225.4124 0025473 059.3434 354.1991 14.43739681249001
0 COSMOS 1275 DEB
1 33503U 81053MZ  13294.76535340  .00007430  00000-0  21708-2 0  7692
2 33503 082.9657 223.8108 0025448 053.7242 334.2368 14.43757177249283
